ONEWEB-0553             
1 56055U 23043K   23239.38311846  .00001922  00000+0  20165-3 0  9996
2 56055  86.8978  83.3030 0003206 113.9448 246.2115 14.88989911 23090
ONEWEB-0554             
1 56056U 23043L   23239.05612683  .00002472  00000+0  26023-3 0  9994
2 56056  86.8897  83.3183 0002961  48.1127 312.0351 14.88983262 23042
ONEWEB-0555             
1 56057U 23043M   23239.08463114  .00002371  00000+0  24955-3 0  9991
2 56057  86.8936  83.3576 0001105  63.9957 296.1383 14.88968895 23040
ONEWEB-0557             
1 56058U 23043N   23239.31000795  .00002287  00000+0  24050-3 0  9992
2 56058  86.8899  83.2076 0002154  69.6846 290.4612 14.88995237 23084
ONEWEB-0558             
1 56059U 23043P   23239.58334491  .00000015  00000+0  00000+0 0  9997
2 56059  87.7160  88.1910 0004486  86.2795 229.2999 13.69756789 23752
ONEWEB-0559             
1 56060U 23043Q   23239.58334491  .00000015  00000+0  00000+0 0  9999
2 56060  87.7639  88.1563 0002248 111.7420 300.8615 13.70364114 23763
ONEWEB-0566             
1 56061U 23043R   23239.58334491  .00000015  00000+0  00000+0 0  9990
2 56061  87.7082  88.1928 0003741 107.1762 280.8848 13.69226200 23742
ONEWEB-0568             
1 56062U 23043S   23239.10301454  .00002035  00000+0  21360-3 0  9992
2 56062  86.9015  83.4617 0001381  68.9707 291.1667 14.89008032 23045
